DAMPE                   
1 41173U 15078A   26068.99653388  .00002617  00000+0  91158-4 0  9993
2 41173  97.4588  73.9866 0013800  70.6942 289.5790 15.30502084569376
JILIN-1 GAOFEN 3A       
1 44312U 19032C   26068.74542089  .00016264  00000+0  55381-3 0  9993
2 44312  44.9746 183.2861 0002618 111.2900 248.8263 15.30271310372592
